{
    "links": {
        "self": "http://www.neowsapp.com/rest/v1/neo/3682430?api_key=iIulBulltgU6a56xZRHN4H3l9WmuAYTsLGpBGhQ2"
    },
    "id": "3682430",
    "neo_reference_id": "3682430",
    "name": "(2014 QL32)",
    "designation": "2014 QL32",
    "nasa_jpl_url": "http://ssd.jpl.nasa.gov/sbdb.cgi?sstr=3682430",
    "absolute_magnitude_h": 22.8,
    "estimated_diameter": {
        "kilometers": {
            "estimated_diameter_min": 0.0732073989,
            "estimated_diameter_max": 0.1636967205
        },
        "meters": {
            "estimated_diameter_min": 73.2073989347,
            "estimated_diameter_max": 163.696720474
        },
        "miles": {
            "estimated_diameter_min": 0.0454889547,
            "estimated_diameter_max": 0.1017163949
        },
        "feet": {
            "estimated_diameter_min": 240.181762721,
            "estimated_diameter_max": 537.0627483999
        }
    },
    "is_potentially_hazardous_asteroid": false,
    "close_approach_data": [
        {
            "close_approach_date": "2014-08-18",
            "close_approach_date_full": "2014-Aug-18 03:35",
            "epoch_date_close_approach": 1408332900000,
            "relative_velocity": {
                "kilometers_per_second": "10.2247106258",
                "kilometers_per_hour": "36808.9582528134",
                "miles_per_hour": "22871.6551988106"
            },
            "miss_distance": {
                "astronomical": "0.0640039278",
                "lunar": "24.8975279142",
                "kilometers": "9574851.270513786",
                "miles": "5949536.6958148068"
            },
            "orbiting_body": "Earth"
        }
    ],
    "orbital_data": {
        "orbit_id": "14",
        "orbit_determination_date": "2017-04-06 08:39:17",
        "first_observation_date": "2014-08-19",
        "last_observation_date": "2014-09-27",
        "data_arc_in_days": 39,
        "observations_used": 130,
        "orbit_uncertainty": "6",
        "minimum_orbit_intersection": ".0695257",
        "jupiter_tisserand_invariant": "3.138",
        "epoch_osculation": "2459000.5",
        "eccentricity": ".5795685687216119",
        "semi_major_axis": "2.571835994281941",
        "inclination": "13.39338164078664",
        "ascending_node_longitude": "324.5313166112016",
        "orbital_period": "1506.479867625135",
        "perihelion_distance": "1.081280688089233",
        "perihelion_argument": "357.2487435044339",
        "aphelion_distance": "4.062391300474649",
        "perihelion_time": "2458389.538276002796",
        "mean_anomaly": "146.0001061851055",
        "mean_motion": ".2389676807082168",
        "equinox": "J2000",
        "orbit_class": {
            "orbit_class_type": "AMO",
            "orbit_class_description": "Near-Earth asteroid orbits similar to that of 1221 Amor",
            "orbit_class_range": "1.017 AU < q (perihelion) < 1.3 AU"
        }
    },
    "is_sentry_object": false
}